ORBCOMM FM05            
1 25117U 97084F   24199.39036875  .00003039  00000+0  93988-3 0  9994
2 25117  45.0131 172.3483 0004340 332.3426  27.7193 14.43073747393132
ORBCOMM FM06            
1 25118U 97084G   24199.21044029  .00003466  00000+0  10638-2 0  9990
2 25118  45.0126 173.3372 0003519 335.8317  38.2677 14.43158611393104
ORBCOMM FM07            
1 25119U 97084H   24199.41095639  .00002911  00000+0  90218-3 0  9993
2 25119  45.0120 172.9601 0005109 326.7555  33.2974 14.43059542393129
ORBCOMM FM03            
1 25158U 98007B   24199.54467309  .00002865  00000+0  10921-2 0  9993
2 25158 107.9691 169.0333 0045475 113.4034 247.1896 14.32440462376229
ORBCOMM FM04            
1 25159U 98007C   24199.17145513  .00002359  00000+0  90471-3 0  9990
2 25159 107.9678 171.2535 0041082 111.7461 248.8057 14.32709957376313
ORBCOMM FM17            
1 25413U 98046A   24198.82494760  .00001679  00000+0  65394-3 0  9998
2 25413  44.9960  38.4547 0001610 337.4291  22.6485 14.33377964355026
ORBCOMM FM18            
1 25414U 98046B   24198.82688527  .00002505  00000+0  89848-3 0  9994
2 25414  44.9945 324.0879 0002209  23.4780 336.6167 14.36225040355993
ORBCOMM FM19            
1 25415U 98046C   24199.50514554  .00003403  00000+0  12069-2 0  9997
2 25415  44.9955 322.3849 0001191 357.3152  47.6769 14.36064516356250
