<?xml version="1.0" encoding="UTF-8"?>
<ndm xmlns:xsi="http://www.w3.org/2001/XMLSchema-instance" xsi:noNamespaceSchemaLocation="https://sanaregistry.org/r/ndmxml_unqualified/ndmxml-2.0.0-master-2.0.xsd">
<omm id="CCSDS_OMM_VERS" version="2.0">
<header><CREATION_DATE/><ORIGINATOR/></header><body><segment><metadata><OBJECT_NAME>ORBCOMM FM05</OBJECT_NAME><OBJECT_ID>1997-084F</OBJECT_ID><CENTER_NAME>EARTH</CENTER_NAME><REF_FRAME>TEME</REF_FRAME><TIME_SYSTEM>UTC</TIME_SYSTEM><MEAN_ELEMENT_THEORY>SGP4</MEAN_ELEMENT_THEORY></metadata><data><meanElements><EPOCH>2024-07-17T09:22:07.860000</EPOCH><MEAN_MOTION>14.43073747</MEAN_MOTION><ECCENTRICITY>.000434</ECCENTRICITY><INCLINATION>45.0131</INCLINATION><RA_OF_ASC_NODE>172.3483</RA_OF_ASC_NODE><ARG_OF_PERICENTER>332.3426</ARG_OF_PERICENTER><MEAN_ANOMALY>27.7193</MEAN_ANOMALY></meanElements><tleParameters><EPHEMERIS_TYPE>0</EPHEMERIS_TYPE><CLASSIFICATION_TYPE>U</CLASSIFICATION_TYPE><NORAD_CAT_ID>25117</NORAD_CAT_ID><ELEMENT_SET_NO>999</ELEMENT_SET_NO><REV_AT_EPOCH>39313</REV_AT_EPOCH><BSTAR>.93988E-3</BSTAR><MEAN_MOTION_DOT>.3039E-4</MEAN_MOTION_DOT><MEAN_MOTION_DDOT>0</MEAN_MOTION_DDOT></tleParameters></data></segment></body></omm>
<omm id="CCSDS_OMM_VERS" version="2.0">
<header><CREATION_DATE/><ORIGINATOR/></header><body><segment><metadata><OBJECT_NAME>ORBCOMM FM06</OBJECT_NAME><OBJECT_ID>1997-084G</OBJECT_ID><CENTER_NAME>EARTH</CENTER_NAME><REF_FRAME>TEME</REF_FRAME><TIME_SYSTEM>UTC</TIME_SYSTEM><MEAN_ELEMENT_THEORY>SGP4</MEAN_ELEMENT_THEORY></metadata><data><meanElements><EPOCH>2024-07-17T05:03:02.041056</EPOCH><MEAN_MOTION>14.43158611</MEAN_MOTION><ECCENTRICITY>.0003519</ECCENTRICITY><INCLINATION>45.0126</INCLINATION><RA_OF_ASC_NODE>173.3372</RA_OF_ASC_NODE><ARG_OF_PERICENTER>335.8317</ARG_OF_PERICENTER><MEAN_ANOMALY>38.2677</MEAN_ANOMALY></meanElements><tleParameters><EPHEMERIS_TYPE>0</EPHEMERIS_TYPE><CLASSIFICATION_TYPE>U</CLASSIFICATION_TYPE><NORAD_CAT_ID>25118</NORAD_CAT_ID><ELEMENT_SET_NO>999</ELEMENT_SET_NO><REV_AT_EPOCH>39310</REV_AT_EPOCH><BSTAR>.10638E-2</BSTAR><MEAN_MOTION_DOT>.3466E-4</MEAN_MOTION_DOT><MEAN_MOTION_DDOT>0</MEAN_MOTION_DDOT></tleParameters></data></segment></body></omm>
<omm id="CCSDS_OMM_VERS" version="2.0">
<header><CREATION_DATE/><ORIGINATOR/></header><body><segment><metadata><OBJECT_NAME>ORBCOMM FM07</OBJECT_NAME><OBJECT_ID>1997-084H</OBJECT_ID><CENTER_NAME>EARTH</CENTER_NAME><REF_FRAME>TEME</REF_FRAME><TIME_SYSTEM>UTC</TIME_SYSTEM><MEAN_ELEMENT_THEORY>SGP4</MEAN_ELEMENT_THEORY></metadata><data><meanElements><EPOCH>2024-07-17T09:51:46.632096</EPOCH><MEAN_MOTION>14.43059542</MEAN_MOTION><ECCENTRICITY>.0005109</ECCENTRICITY><INCLINATION>45.0120</INCLINATION><RA_OF_ASC_NODE>172.9601</RA_OF_ASC_NODE><ARG_OF_PERICENTER>326.7555</ARG_OF_PERICENTER><MEAN_ANOMALY>33.2974</MEAN_ANOMALY></meanElements><tleParameters><EPHEMERIS_TYPE>0</EPHEMERIS_TYPE><CLASSIFICATION_TYPE>U</CLASSIFICATION_TYPE><NORAD_CAT_ID>25119</NORAD_CAT_ID><ELEMENT_SET_NO>999</ELEMENT_SET_NO><REV_AT_EPOCH>39312</REV_AT_EPOCH><BSTAR>.90218E-3</BSTAR><MEAN_MOTION_DOT>.2911E-4</MEAN_MOTION_DOT><MEAN_MOTION_DDOT>0</MEAN_MOTION_DDOT></tleParameters></data></segment></body></omm>
<omm id="CCSDS_OMM_VERS" version="2.0">
<header><CREATION_DATE/><ORIGINATOR/></header><body><segment><metadata><OBJECT_NAME>ORBCOMM FM03</OBJECT_NAME><OBJECT_ID>1998-007B</OBJECT_ID><CENTER_NAME>EARTH</CENTER_NAME><REF_FRAME>TEME</REF_FRAME><TIME_SYSTEM>UTC</TIME_SYSTEM><MEAN_ELEMENT_THEORY>SGP4</MEAN_ELEMENT_THEORY></metadata><data><meanElements><EPOCH>2024-07-17T13:04:19.754976</EPOCH><MEAN_MOTION>14.32440462</MEAN_MOTION><ECCENTRICITY>.0045475</ECCENTRICITY><INCLINATION>107.9691</INCLINATION><RA_OF_ASC_NODE>169.0333</RA_OF_ASC_NODE><ARG_OF_PERICENTER>113.4034</ARG_OF_PERICENTER><MEAN_ANOMALY>247.1896</MEAN_ANOMALY></meanElements><tleParameters><EPHEMERIS_TYPE>0</EPHEMERIS_TYPE><CLASSIFICATION_TYPE>U</CLASSIFICATION_TYPE><NORAD_CAT_ID>25158</NORAD_CAT_ID><ELEMENT_SET_NO>999</ELEMENT_SET_NO><REV_AT_EPOCH>37622</REV_AT_EPOCH><BSTAR>.10921E-2</BSTAR><MEAN_MOTION_DOT>.2865E-4</MEAN_MOTION_DOT><MEAN_MOTION_DDOT>0</MEAN_MOTION_DDOT></tleParameters></data></segment></body></omm>
<omm id="CCSDS_OMM_VERS" version="2.0">
<header><CREATION_DATE/><ORIGINATOR/></header><body><segment><metadata><OBJECT_NAME>ORBCOMM FM04</OBJECT_NAME><OBJECT_ID>1998-007C</OBJECT_ID><CENTER_NAME>EARTH</CENTER_NAME><REF_FRAME>TEME</REF_FRAME><TIME_SYSTEM>UTC</TIME_SYSTEM><MEAN_ELEMENT_THEORY>SGP4</MEAN_ELEMENT_THEORY></metadata><data><meanElements><EPOCH>2024-07-17T04:06:53.723232</EPOCH><MEAN_MOTION>14.32709957</MEAN_MOTION><ECCENTRICITY>.0041082</ECCENTRICITY><INCLINATION>107.9678</INCLINATION><RA_OF_ASC_NODE>171.2535</RA_OF_ASC_NODE><ARG_OF_PERICENTER>111.7461</ARG_OF_PERICENTER><MEAN_ANOMALY>248.8057</MEAN_ANOMALY></meanElements><tleParameters><EPHEMERIS_TYPE>0</EPHEMERIS_TYPE><CLASSIFICATION_TYPE>U</CLASSIFICATION_TYPE><NORAD_CAT_ID>25159</NORAD_CAT_ID><ELEMENT_SET_NO>999</ELEMENT_SET_NO><REV_AT_EPOCH>37631</REV_AT_EPOCH><BSTAR>.90471E-3</BSTAR><MEAN_MOTION_DOT>.2359E-4</MEAN_MOTION_DOT><MEAN_MOTION_DDOT>0</MEAN_MOTION_DDOT></tleParameters></data></segment></body></omm>
<omm id="CCSDS_OMM_VERS" version="2.0">
<header><CREATION_DATE/><ORIGINATOR/></header><body><segment><metadata><OBJECT_NAME>ORBCOMM FM17</OBJECT_NAME><OBJECT_ID>1998-046A</OBJECT_ID><CENTER_NAME>EARTH</CENTER_NAME><REF_FRAME>TEME</REF_FRAME><TIME_SYSTEM>UTC</TIME_SYSTEM><MEAN_ELEMENT_THEORY>SGP4</MEAN_ELEMENT_THEORY></metadata><data><meanElements><EPOCH>2024-07-16T19:47:55.472640</EPOCH><MEAN_MOTION>14.33377964</MEAN_MOTION><ECCENTRICITY>.000161</ECCENTRICITY><INCLINATION>44.9960</INCLINATION><RA_OF_ASC_NODE>38.4547</RA_OF_ASC_NODE><ARG_OF_PERICENTER>337.4291</ARG_OF_PERICENTER><MEAN_ANOMALY>22.6485</MEAN_ANOMALY></meanElements><tleParameters><EPHEMERIS_TYPE>0</EPHEMERIS_TYPE><CLASSIFICATION_TYPE>U</CLASSIFICATION_TYPE><NORAD_CAT_ID>25413</NORAD_CAT_ID><ELEMENT_SET_NO>999</ELEMENT_SET_NO><REV_AT_EPOCH>35502</REV_AT_EPOCH><BSTAR>.65394E-3</BSTAR><MEAN_MOTION_DOT>.1679E-4</MEAN_MOTION_DOT><MEAN_MOTION_DDOT>0</MEAN_MOTION_DDOT></tleParameters></data></segment></body></omm>
<omm id="CCSDS_OMM_VERS" version="2.0">
<header><CREATION_DATE/><ORIGINATOR/></header><body><segment><metadata><OBJECT_NAME>ORBCOMM FM18</OBJECT_NAME><OBJECT_ID>1998-046B</OBJECT_ID><CENTER_NAME>EARTH</CENTER_NAME><REF_FRAME>TEME</REF_FRAME><TIME_SYSTEM>UTC</TIME_SYSTEM><MEAN_ELEMENT_THEORY>SGP4</MEAN_ELEMENT_THEORY></metadata><data><meanElements><EPOCH>2024-07-16T19:50:42.887328</EPOCH><MEAN_MOTION>14.36225040</MEAN_MOTION><ECCENTRICITY>.0002209</ECCENTRICITY><INCLINATION>44.9945</INCLINATION><RA_OF_ASC_NODE>324.0879</RA_OF_ASC_NODE><ARG_OF_PERICENTER>23.4780</ARG_OF_PERICENTER><MEAN_ANOMALY>336.6167</MEAN_ANOMALY></meanElements><tleParameters><EPHEMERIS_TYPE>0</EPHEMERIS_TYPE><CLASSIFICATION_TYPE>U</CLASSIFICATION_TYPE><NORAD_CAT_ID>25414</NORAD_CAT_ID><ELEMENT_SET_NO>999</ELEMENT_SET_NO><REV_AT_EPOCH>35599</REV_AT_EPOCH><BSTAR>.89848E-3</BSTAR><MEAN_MOTION_DOT>.2505E-4</MEAN_MOTION_DOT><MEAN_MOTION_DDOT>0</MEAN_MOTION_DDOT></tleParameters></data></segment></body></omm>
<omm id="CCSDS_OMM_VERS" version="2.0">
<header><CREATION_DATE/><ORIGINATOR/></header><body><segment><metadata><OBJECT_NAME>ORBCOMM FM19</OBJECT_NAME><OBJECT_ID>1998-046C</OBJECT_ID><CENTER_NAME>EARTH</CENTER_NAME><REF_FRAME>TEME</REF_FRAME><TIME_SYSTEM>UTC</TIME_SYSTEM><MEAN_ELEMENT_THEORY>SGP4</MEAN_ELEMENT_THEORY></metadata><data><meanElements><EPOCH>2024-07-17T12:07:24.574656</EPOCH><MEAN_MOTION>14.36064516</MEAN_MOTION><ECCENTRICITY>.0001191</ECCENTRICITY><INCLINATION>44.9955</INCLINATION><RA_OF_ASC_NODE>322.3849</RA_OF_ASC_NODE><ARG_OF_PERICENTER>357.3152</ARG_OF_PERICENTER><MEAN_ANOMALY>47.6769</MEAN_ANOMALY></meanElements><tleParameters><EPHEMERIS_TYPE>0</EPHEMERIS_TYPE><CLASSIFICATION_TYPE>U</CLASSIFICATION_TYPE><NORAD_CAT_ID>25415</NORAD_CAT_ID><ELEMENT_SET_NO>999</ELEMENT_SET_NO><REV_AT_EPOCH>35625</REV_AT_EPOCH><BSTAR>.12069E-2</BSTAR><MEAN_MOTION_DOT>.3403E-4</MEAN_MOTION_DOT><MEAN_MOTION_DDOT>0</MEAN_MOTION_DDOT></tleParameters></data></segment></body></omm>

</ndm>
